start=new Date('2021-10-22T00:00:00.000Z').valueOf();
sats=[{"PERIAPSIS":"546.148","ELEMENT_SET_NO":"999","SEMIMAJOR_AXIS":"6925.422","LAUNCH_DATE":"2021-03-14","EPOCH":"2021-10-21T15:24:21.927744","TLE_LINE2":"2 47880  53.0542 264.4964 0001644  73.6638 286.4532 15.06376199 34881","MEAN_MOTION":"15.06376199","ARG_OF_PERICENTER":"73.6638","DECAY_DATE":null,"REV_AT_EPOCH":"3488","TLE_LINE1":"1 47880U 21021W   21294.64192046  .00001713  00000-0  13394-3 0  9998","APOAPSIS":"548.425","MEAN_MOTION_DOT":"0.00001713","RA_OF_ASC_NODE":"264.4964","TIME_SYSTEM":"UTC","EPHEMERIS_TYPE":"0","OBJECT_NAME":"STARLINK-2337","PERIOD":"95.594","CENTER_NAME":"EARTH","ECCENTRICITY":"0.00016440","RCS_SIZE":"LARGE","MEAN_MOTION_DDOT":"0.0000000000000","GP_ID":"187839942","MEAN_ANOMALY":"286.4532","FILE":"3176920","SITE":"AFETR","OBJECT_ID":"2021-021W","INCLINATION":"53.0542","BSTAR":"0.00013394000000","MEAN_ELEMENT_THEORY":"SGP4","REF_FRAME":"TEME","OBJECT_TYPE":"PAYLOAD","NORAD_CAT_ID":"47880","COUNTRY_CODE":"US","CLASSIFICATION_TYPE":"U"},{"INCLINATION":"53.0560","BSTAR":"0.00001709600000","REF_FRAME":"TEME","MEAN_ELEMENT_THEORY":"SGP4","NORAD_CAT_ID":"47881","COUNTRY_CODE":"US","OBJECT_TYPE":"PAYLOAD","CLASSIFICATION_TYPE":"U","MEAN_MOTION_DDOT":"0.0000000000000","GP_ID":"187811045","FILE":"3176553","SITE":"AFETR","MEAN_ANOMALY":"306.6590","OBJECT_ID":"2021-021X","OBJECT_NAME":"STARLINK-2339","CENTER_NAME":"EARTH","PERIOD":"95.592","ECCENTRICITY":"0.00023240","RCS_SIZE":"LARGE","EPOCH":"2021-10-21T07:59:52.361952","LAUNCH_DATE":"2021-03-14","SEMIMAJOR_AXIS":"6925.340","ELEMENT_SET_NO":"999","PERIAPSIS":"545.595","DECAY_DATE":null,"ARG_OF_PERICENTER":"53.4613","TLE_LINE2":"2 47881  53.0560 265.7842 0002324  53.4613 306.6590 15.06402813 34800","MEAN_MOTION":"15.06402813","APOAPSIS":"548.814","MEAN_MOTION_DOT":"-0.00000027","REV_AT_EPOCH":"3480","TLE_LINE1":"1 47881U 21021X   21294.33324493 -.00000027  00000-0  17096-4 0  9990","RA_OF_ASC_NODE":"265.7842","TIME_SYSTEM":"UTC","EPHEMERIS_TYPE":"0"},{"INCLINATION":"53.0542","BSTAR":"0.00003918500000","MEAN_ELEMENT_THEORY":"SGP4","REF_FRAME":"TEME","OBJECT_TYPE":"PAYLOAD","NORAD_CAT_ID":"47882","COUNTRY_CODE":"US","CLASSIFICATION_TYPE":"U","MEAN_MOTION_DDOT":"0.0000000000000","GP_ID":"187811292","MEAN_ANOMALY":"277.5190","FILE":"3176553","SITE":"AFETR","OBJECT_ID":"2021-021Y","OBJECT_NAME":"STARLINK-2340","PERIOD":"95.592","CENTER_NAME":"EARTH","ECCENTRICITY":"0.00014040","RCS_SIZE":"LARGE","ELEMENT_SET_NO":"999","PERIAPSIS":"546.224","LAUNCH_DATE":"2021-03-14","EPOCH":"2021-10-21T07:24:02.092320","SEMIMAJOR_AXIS":"6925.331","TLE_LINE2":"2 47882  53.0542 255.9954 0001404  82.5959 277.5190 15.06405573 35146","MEAN_MOTION":"15.06405573","ARG_OF_PERICENTER":"82.5959","DECAY_DATE":null,"REV_AT_EPOCH":"3514","TLE_LINE1":"1 47882U 21021Y   21294.30835755  .00000302  00000-0  39185-4 0  9994","MEAN_MOTION_DOT":"0.00000302","APOAPSIS":"548.169","RA_OF_ASC_NODE":"255.9954","EPHEMERIS_TYPE":"0","TIME_SYSTEM":"UTC"},{"INCLINATION":"53.0580","BSTAR":"0.00002183700000","REF_FRAME":"TEME","MEAN_ELEMENT_THEORY":"SGP4","NORAD_CAT_ID":"47883","COUNTRY_CODE":"US","OBJECT_TYPE":"PAYLOAD","CLASSIFICATION_TYPE":"U","MEAN_MOTION_DDOT":"0.0000000000000","GP_ID":"187839692","FILE":"3176920","SITE":"AFETR","MEAN_ANOMALY":"287.8982","OBJECT_ID":"2021-021Z","OBJECT_NAME":"STARLINK-2342","CENTER_NAME":"EARTH","PERIOD":"95.592","ECCENTRICITY":"0.00015470","RCS_SIZE":"MEDIUM","EPOCH":"2021-10-21T14:41:15.781344","LAUNCH_DATE":"2021-03-14","SEMIMAJOR_AXIS":"6925.329","ELEMENT_SET_NO":"999","PERIAPSIS":"546.122","DECAY_DATE":null,"MEAN_MOTION":"15.06406532","TLE_LINE2":"2 47883  53.0580 259.6447 0001547  72.2176 287.8982 15.06406532 35129","ARG_OF_PERICENTER":"72.2176","MEAN_MOTION_DOT":"0.00000044","APOAPSIS":"548.265","REV_AT_EPOCH":"3512","TLE_LINE1":"1 47883U 21021Z   21294.61198821  .00000044  00000-0  21837-4 0  9993","RA_OF_ASC_NODE":"259.6447","EPHEMERIS_TYPE":"0","TIME_SYSTEM":"UTC"},{"COUNTRY_CODE":"US","NORAD_CAT_ID":"47884","OBJECT_TYPE":"PAYLOAD","CLASSIFICATION_TYPE":"U","BSTAR":"-0.00001172700000","INCLINATION":"53.0534","REF_FRAME":"TEME","MEAN_ELEMENT_THEORY":"SGP4","SITE":"AFETR","FILE":"3176920","MEAN_ANOMALY":"293.1856","OBJECT_ID":"2021-021AA","MEAN_MOTION_DDOT":"0.0000000000000","GP_ID":"187840442","ECCENTRICITY":"0.00017740","RCS_SIZE":"LARGE","OBJECT_NAME":"STARLINK-2343","CENTER_NAME":"EARTH","PERIOD":"95.593","APOAPSIS":"548.481","MEAN_MOTION_DOT":"-0.00000456","REV_AT_EPOCH":"3488","TLE_LINE1":"1 47884U 21021AA  21294.66128488 -.00000456  00000-0 -11727-4 0  9997","EPHEMERIS_TYPE":"0","TIME_SYSTEM":"UTC","RA_OF_ASC_NODE":"264.4192","EPOCH":"2021-10-21T15:52:15.013632","LAUNCH_DATE":"2021-03-14","SEMIMAJOR_AXIS":"6925.387","PERIAPSIS":"546.024","ELEMENT_SET_NO":"999","DECAY_DATE":null,"TLE_LINE2":"2 47884  53.0534 264.4192 0001774  66.9319 293.1856 15.06387333 34880","ARG_OF_PERICENTER":"66.9319","MEAN_MOTION":"15.06387333"},{"OBJECT_ID":"2021-021AB","FILE":"3176920","SITE":"AFETR","MEAN_ANOMALY":"288.9167","GP_ID":"187840694","MEAN_MOTION_DDOT":"0.0000000000000","CLASSIFICATION_TYPE":"U","NORAD_CAT_ID":"47885","COUNTRY_CODE":"US","OBJECT_TYPE":"PAYLOAD","REF_FRAME":"TEME","MEAN_ELEMENT_THEORY":"SGP4","INCLINATION":"53.0542","BSTAR":"0.00001481200000","RA_OF_ASC_NODE":"269.4412","TIME_SYSTEM":"UTC","EPHEMERIS_TYPE":"0","APOAPSIS":"548.442","MEAN_MOTION_DOT":"-0.00000061","TLE_LINE1":"1 47885U 21021AB  21294.65529731 -.00000061  00000-0  14812-4 0  9992","REV_AT_EPOCH":"3497","DECAY_DATE":null,"MEAN_MOTION":"15.06388989","TLE_LINE2":"2 47885  53.0542 269.4412 0001725  71.2009 288.9167 15.06388989 34976","ARG_OF_PERICENTER":"71.2009","SEMIMAJOR_AXIS":"6925.382","LAUNCH_DATE":"2021-03-14","EPOCH":"2021-10-21T15:43:37.687584","ELEMENT_SET_NO":"999","PERIAPSIS":"546.053","RCS_SIZE":"LARGE","ECCENTRICITY":"0.00017250","CENTER_NAME":"EARTH","PERIOD":"95.593","OBJECT_NAME":"STARLINK-2344"},{"APOAPSIS":"548.401","MEAN_MOTION_DOT":"-0.00001831","TLE_LINE1":"1 47886U 21021AC  21294.32353495 -.00001831  00000-0 -10409-3 0  9993","REV_AT_EPOCH":"3491","EPHEMERIS_TYPE":"0","TIME_SYSTEM":"UTC","RA_OF_ASC_NODE":"260.9339","LAUNCH_DATE":"2021-03-14","EPOCH":"2021-10-21T07:45:53.419680","SEMIMAJOR_AXIS":"6925.361","ELEMENT_SET_NO":"999","PERIAPSIS":"546.050","DECAY_DATE":null,"TLE_LINE2":"2 47886  53.0552 260.9339 0001697  66.9788 293.1379 15.06396058 34918","ARG_OF_PERICENTER":"66.9788","MEAN_MOTION":"15.06396058","ECCENTRICITY":"0.00016970","RCS_SIZE":"LARGE","OBJECT_NAME":"STARLINK-2345","CENTER_NAME":"EARTH","PERIOD":"95.592","SITE":"AFETR","FILE":"3176553","MEAN_ANOMALY":"293.1379","OBJECT_ID":"2021-021AC","MEAN_MOTION_DDOT":"0.0000000000000","GP_ID":"187811792","COUNTRY_CODE":"US","NORAD_CAT_ID":"47886","OBJECT_TYPE":"PAYLOAD","CLASSIFICATION_TYPE":"U","BSTAR":"-0.00010409000000","INCLINATION":"53.0552","REF_FRAME":"TEME","MEAN_ELEMENT_THEORY":"SGP4"},{"GP_ID":"187840192","MEAN_MOTION_DDOT":"0.0000000000000","OBJECT_ID":"2021-021AD","FILE":"3176920","SITE":"AFETR","MEAN_ANOMALY":"292.7107","REF_FRAME":"TEME","MEAN_ELEMENT_THEORY":"SGP4","INCLINATION":"53.0572","BSTAR":"-0.00003584200000","CLASSIFICATION_TYPE":"U","NORAD_CAT_ID":"47887","COUNTRY_CODE":"US","OBJECT_TYPE":"PAYLOAD","DECAY_DATE":null,"MEAN_MOTION":"15.06395438","TLE_LINE2":"2 47887  53.0572 264.6410 0001531  67.4044 292.7107 15.06395438 34881","ARG_OF_PERICENTER":"67.4044","SEMIMAJOR_AXIS":"6925.363","LAUNCH_DATE":"2021-03-14","EPOCH":"2021-10-21T14:43:14.612448","PERIAPSIS":"546.167","ELEMENT_SET_NO":"999","RA_OF_ASC_NODE":"264.6410","EPHEMERIS_TYPE":"0","TIME_SYSTEM":"UTC","APOAPSIS":"548.288","MEAN_MOTION_DOT":"-0.00000815","TLE_LINE1":"1 47887U 21021AD  21294.61336357 -.00000815  00000-0 -35842-4 0  9994","REV_AT_EPOCH":"3488","CENTER_NAME":"EARTH","PERIOD":"95.592","OBJECT_NAME":"STARLINK-2346","RCS_SIZE":"LARGE","ECCENTRICITY":"0.00015310"},{"PERIOD":"95.592","CENTER_NAME":"EARTH","OBJECT_NAME":"STARLINK-2348","RCS_SIZE":"LARGE","ECCENTRICITY":"0.00015090","ARG_OF_PERICENTER":"81.1850","TLE_LINE2":"2 47888  53.0551 255.7166 0001509  81.1850 278.9310 15.06401367 34994","MEAN_MOTION":"15.06401367","DECAY_DATE":null,"ELEMENT_SET_NO":"999","PERIAPSIS":"546.164","SEMIMAJOR_AXIS":"6925.344","LAUNCH_DATE":"2021-03-14","EPOCH":"2021-10-21T08:54:14.762880","EPHEMERIS_TYPE":"0","TIME_SYSTEM":"UTC","RA_OF_ASC_NODE":"255.7166","TLE_LINE1":"1 47888U 21021AE  21294.37100420 -.00000102  00000-0  12058-4 0  9990","REV_AT_EPOCH":"3499","APOAPSIS":"548.254","MEAN_MOTION_DOT":"-0.00000102","MEAN_ELEMENT_THEORY":"SGP4","REF_FRAME":"TEME","BSTAR":"0.00001205800000","INCLINATION":"53.0551","CLASSIFICATION_TYPE":"U","OBJECT_TYPE":"PAYLOAD","COUNTRY_CODE":"US","NORAD_CAT_ID":"47888","GP_ID":"187810796","MEAN_MOTION_DDOT":"0.0000000000000","OBJECT_ID":"2021-021AE","MEAN_ANOMALY":"278.9310","SITE":"AFETR","FILE":"3176553"},{"MEAN_MOTION_DDOT":"0.0000000000000","GP_ID":"187811046","SITE":"AFETR","FILE":"3176553","MEAN_ANOMALY":"280.1488","OBJECT_ID":"2021-021AF","BSTAR":"-0.00011823000000","INCLINATION":"53.0563","REF_FRAME":"TEME","MEAN_ELEMENT_THEORY":"SGP4","COUNTRY_CODE":"US","NORAD_CAT_ID":"47889","OBJECT_TYPE":"PAYLOAD","CLASSIFICATION_TYPE":"U","LAUNCH_DATE":"2021-03-14","SEMIMAJOR_AXIS":"6925.366","EPOCH":"2021-10-21T09:10:11.337888","ELEMENT_SET_NO":"999","PERIAPSIS":"546.168","DECAY_DATE":null,"MEAN_MOTION":"15.06394247","TLE_LINE2":"2 47889  53.0563 255.6750 0001535  79.9674 280.1488 15.06394247 35040","ARG_OF_PERICENTER":"79.9674","APOAPSIS":"548.294","MEAN_MOTION_DOT":"-0.00002042","TLE_LINE1":"1 47889U 21021AF  21294.38207567 -.00002042  00000-0 -11823-3 0  9996","REV_AT_EPOCH":"3504","TIME_SYSTEM":"UTC","EPHEMERIS_TYPE":"0","RA_OF_ASC_NODE":"255.6750","OBJECT_NAME":"STARLINK-2349","CENTER_NAME":"EARTH","PERIOD":"95.593","ECCENTRICITY":"0.00015350","RCS_SIZE":"LARGE"}];
